ONEWEB-0446             
1 51640U 22012U   26024.38952492  .00000246  00000+0  66763-3 0  9991
2 51640  87.8773  64.9496 0001935 103.1979 256.9364 13.10376708190498
ONEWEB-0448             
1 51641U 22012V   26024.39450993  .00000503  00000+0  14049-2 0  9997
2 51641  87.8762  64.9465 0001804  95.9995 264.1338 13.10375707190461
ONEWEB-0449             
1 51642U 22012W   26024.39949720  .00000613  00000+0  17196-2 0  9997
2 51642  87.8764  64.9194 0002223  86.9097 273.2284 13.10374870190474
ONEWEB-0451             
1 51643U 22012X   26024.46167504  .00000007  00000+0 -16184-4 0  9994
2 51643  87.9092  34.3926 0001906  88.3032 271.8318 13.17650167194734
ONEWEB-0452             
1 51644U 22012Y   26024.45999744  .00000056  00000+0  10996-3 0  9990
2 51644  87.9082  34.4437 0001966  82.2299 277.9056 13.17648781194742
ONEWEB-0456             
1 51646U 22012AA  26024.33309188  .00000643  00000+0  18070-2 0  9998
2 51646  87.8778  64.9075 0001667  96.4390 263.6927 13.10372408190500
ONEWEB-0457             
1 51647U 22012AB  26024.38620583  .00000126  00000+0  32385-3 0  9991
2 51647  87.8767  64.9371 0002237 103.1662 256.9715 13.10376171190512
ONEWEB-0458             
1 51648U 22012AC  26024.40779727  .00000611  00000+0  17127-2 0  9995
2 51648  87.8771  64.9100 0001924  92.7121 267.4226 13.10372404190477
